KUIPER-00619            
1 69777U 26151Q   26199.55429294  .00012621  00000+0  33569-3 0  9998
2 69777  51.8809 163.9998 0002142  59.8022 300.3177 15.38593794  2534
KUIPER-00621            
1 69778U 26151R   26199.62165444  .00024675  00000+0  65034-3 0  9995
2 69778  51.8803 163.7041 0002559 127.4874 232.6347 15.38363011  2549
KUIPER-00622            
1 69779U 26151S   26199.44061039  .00008153  00000+0  23231-3 0  9997
2 69779  51.8742 164.7371 0006752 157.7973 202.3307 15.36968365  2512
KUIPER-00623            
1 69780U 26151T   26198.26556190  .00133416  00000+0  34980-2 0  9998
2 69780  51.8777 170.3650 0006129 146.6000 213.5375 15.37672053  2337
KUIPER-00626            
1 69781U 26151U   26199.38846122 -.00009712  00000+0 -27075-3 0  9991
2 69781  51.8720 165.1335 0007669 171.5528 188.5588 15.34990807  2503
KUIPER-00627            
1 69782U 26151V   26199.39056766 -.00047612  00000+0 -13894-2 0  9994
2 69782  51.8693 165.1438 0010822 175.1356 184.9736 15.34693182  2502
KUIPER-00629            
1 69783U 26151W   26199.58335648 -.00028595  00000+0 -96117-3 0  9994
2 69783  51.8781 164.1633 0006474 166.1752 220.7225 15.30004700  2864
KUIPER-00631            
1 69784U 26151X   26199.58335648 -.00836253  00000+0 -29321-1 0  9994
2 69784  51.8746 164.1506 0007959 171.5669 213.6550 15.31450904  1303
KUIPER-00634            
1 69785U 26151Y   26199.36783748  .00008716  00000+0  24128-3 0  9994
2 69785  51.8780 165.0027 0003585 145.2713 214.8508 15.37786969  2507
KUIPER-00639            
1 69786U 26151Z   26199.51570364  .00023193  00000+0  67781-3 0  9998
2 69786  51.8694 164.4837 0010079 174.1474 185.9631 15.35139815  2522
KUIPER-00641            
1 69787U 26151AA  26199.58335648 -.00035151  00000+0 -10260-2 0  9998
2 69787  51.8677 164.2334 0010924 172.6311 164.0699 15.34543691  3170
KUIPER-00644            
1 69788U 26151AB  26199.51784543  .00017304  00000+0  57228-3 0  9998
2 69788  51.8744 164.4808 0008215 165.5057 194.6164 15.31410604  2520
KUIPER-00646            
1 69789U 26151AC  26199.51463705  .00024178  00000+0  68987-3 0  9994
2 69789  51.8704 164.4782 0009141 177.9380 182.1646 15.35875674  2526
KUIPER-00647            
1 69790U 26151AD  26199.38929917 -.00001567  00000+0 -34049-4 0  9995
2 69790  51.8665 165.1337 0010638 176.4406 183.6657 15.35105780  2504
KUIPER-00662            
1 69791U 26151AE  26199.44544842  .00008010  00000+0  23156-3 0  9997
2 69791  51.8745 164.7687 0008258 170.6139 189.5003 15.36530382  2513
LINK                    
1 69792U 26152A   26199.55753722  .00092753  00000+0  77286-3 0  9990
2 69792  20.5910 301.5041 0024958  41.6624 318.5720 15.67914384  2384
ISS OBJECT YJ           
1 69794U 98067YJ  26199.40266446  .00018972  00000+0  33749-3 0  9999
2 69794  51.6313 145.5127 0007726 322.8487  37.1967 15.50153314  2493
ISS OBJECT YK           
1 69795U 98067YK  26199.13965566  .00035727  00000+0  61067-3 0  9990
2 69795  51.6313 146.7573 0006626 329.4507  30.6095 15.50914604  2459
ISS OBJECT YL           
1 69796U 98067YL  26199.07665547  .00028307  00000+0  49057-3 0  9991
2 69796  51.6315 147.0863 0008719 322.6666  37.3717 15.50628198  2437
ISS OBJECT YM           
1 69797U 98067YM  26199.14076886  .00029042  00000+0  50205-3 0  9996
2 69797  51.6314 146.7645 0009527 314.1271  45.8934 15.50677012  2431
ISS OBJECT YN           
1 69798U 98067YN  26199.07743515  .00018532  00000+0  32670-3 0  9997
2 69798  51.6317 147.0913 0009190 325.6783  34.3611 15.50414888  2444
PROVES-ELECTRA          
1 69799U 98067YP  26198.17400478  .00024046  00000+0  41820-3 0  9990
2 69799  51.6315 151.5587 0009700 310.8273  49.1874 15.50615173  2295
QIANFAN-201             
1 69800U 26153A   26198.83974110  .00000055  00000+0  17183-4 0  9992
2 69800  88.9972 358.7543 0006199 157.8285 202.3177 14.25481230  1928
QIANFAN-202             
1 69801U 26153B   26199.56741962  .00000171  00000+0  75172-4 0  9992
2 69801  88.9926 358.6652 0007053 164.2094 195.9317 14.18843773  2029
QIANFAN-203             
1 69802U 26153C   26199.20704616  .00000105  00000+0  40677-4 0  9998
2 69802  88.9925 358.7043 0007648 174.1189 186.0094 14.22391127  1971
QIANFAN-204             
1 69803U 26153D   26199.63345586  .00000124  00000+0  51575-4 0  9993
2 69803  88.9927 358.6564 0008017 167.4814 192.6577 14.20114535  2033
QIANFAN-205             
1 69804U 26153E   26199.56026480  .00000089  00000+0  33456-4 0  9993
2 69804  88.9925 358.6638 0007906 171.6072 188.5253 14.22264783  2020
QIANFAN-206             
1 69805U 26153F   26199.62020699  .00000041  00000+0  11551-4 0  9997
2 69805  88.9926 358.6543 0008397 172.0481 188.0847 14.24034612  2034
QIANFAN-207             
1 69806U 26153G   26199.61845022  .00000137  00000+0  53188-4 0  9990
2 69806  88.9926 358.6541 0007835 172.1243 188.0074 14.24251083  2031
